STARLINK-35797          
1 66364U 25254S   26068.76132379  .00035831  00000+0  12161-2 0  9995
2 66364  53.1590 232.3333 0001204  68.2693 291.8436 15.30198099 18984
GLOBAL-34               
1 68098U 26043A   26068.47466435  .00014018  00000+0  45822-3 0  9994
2 68098  42.0215  76.7399 0006884 289.2632  70.7460 15.31488019   538
